#cP2009  9 23  0  0  0.00000000      96 ORBIT IGS05 HLM  IGS
## 1550 259200.00000000   900.00000000 55097 0.0000000000000
+   32   G01G02G03G04G05G06G07G08G09G10G11G12G13G14G15G16G17
+        G18G19G20G21G22G23G24G25G26G27G28G29G30G31G32  0  0
+          0  0  0  0  0  0  0  0  0  0  0  0  0  0  0  0  0
+          0  0  0  0  0  0  0  0  0  0  0  0  0  0  0  0  0
+          0  0  0  0  0  0  0  0  0  0  0  0  0  0  0  0  0
++         4  2  2  2  2  2  2  2  2  2  2  2  2  2  2  2  2
++         2  2  2  2  2  2  3  2  2  2  3  2  2  2  2  0  0
++         0  0  0  0  0  0  0  0  0  0  0  0  0  0  0  0  0
++         0  0  0  0  0  0  0  0  0  0  0  0  0  0  0  0  0
++         0  0  0  0  0  0  0  0  0  0  0  0  0  0  0  0  0
%c G  cc GPS ccc cccc cccc cccc cccc ccccc ccccc ccccc ccccc
%c cc cc ccc ccc cccc cccc cccc cccc ccccc ccccc ccccc ccccc
%f  1.2500000  1.025000000  0.00000000000  0.000000000000000
%f  0.0000000  0.000000000  0.00000000000  0.000000000000000
%i    0    0    0    0      0      0      0      0         0
%i    0    0    0    0      0      0      0      0         0
/* FINAL ORBIT COMBINATION FROM WEIGHTED AVERAGE OF:        
/* cod emr esa gfz grg jpl mit ngs sio                      
/* REFERENCED TO IGS TIME (IGST) AND TO WEIGHTED MEAN POLE: 
/* PCV:IGS05_1545 OL/AL:FES2004  NONE     Y  ORB:CMB CLK:CMB
*  2009  9 23 21 45  0.00000000
PG01 -19022.497512  15718.194422   9587.794354 999999.999999
PG02 -13255.199340 -23149.053067  -2585.567924    174.850215 10  8  1  91       
PG03  18934.655423  11133.188274 -15508.442028    451.193358  6  7  5 115       
PG04  -5757.987391 -24726.416967   6989.062733   -279.247869  6  2  7 101       
PG05 -10490.906794 -11337.155905 -21610.010010    -82.790439  6  6 10 128       
PG06  15194.998816  13294.570620 -17119.644609    243.741282  7  7  6 126       
PG07  11463.727592 -10463.713555 -21553.454771     10.907097  5  7  5 132       
PG08   3159.618497 -20757.894991 -15973.279452   -222.475738  8  3  5 131       
PG09 -17490.653629  -8681.903084  17370.016932     79.147514  7  6  7 135       
PG10  -8913.390582 -13265.714874 -21328.683007    -24.236005  8  5  6 144       
PG11  20128.934439   3739.817708  16868.195344    -21.020251  4  9  2 112       
PG12 -18473.321184   3725.541329  18719.706484   -214.525803  5  7  9 120       
PG13  20699.066584  -6909.570343 -15279.429092    304.962241  6  7  6 100       
PG14  -4873.000430  14067.171670  22116.679357    -46.892333  6  5  5 141       
PG15 -23934.859677  -7817.616195  -8540.858477   -319.011003  9  5  6 119       
PG16   3390.766393  17752.983790 -19329.230747      9.667174  8  7  9 125       
PG17   4755.120269 -14723.689967  21644.150260     87.358117  4  7  5 141       
PG18 -17379.687008  19517.688783  -3146.995801     15.039295  4  6  8 128       
PG19  24525.018253   8493.760898  -6238.365372      9.457041  8  9  6 140       
PG20  19316.942820  -7183.802956  16607.962815     71.577957  7  8  6  99       
PG21  -9831.193480  14038.481347 -19853.527969    -10.967088  6  6  5 117       
PG22 -10077.107188  23226.235213   8058.522275    190.258602  5  6  7 124       
PG23  26589.659057    716.111293  -2653.251366    388.266549  7  8  6 151       
PG24 -16116.989785     77.344126 -20948.365403    223.002143 11 11 10  93       
PG25  15005.269155  -3201.344161 -21319.003586    605.789095  7  7  8 126       
PG26 -14362.674309  10603.349504  19297.149167     61.937451  5  7  8 159       
PG27 -18409.684725 -12093.703257  15547.598470     85.276757  8  6  9 136       
PG28  11809.629003 -22882.319934   6224.011986    -26.115609  6  8  7 110       
PG29 -22565.768880   6140.746834 -12453.541459     60.098970  6  5  6 127       
PG30 -18782.221692  14904.951798  10966.714949    179.348462  4  6  8 120       
PG31   7286.778457  24858.341730   5725.796556    -63.979556  7  7  6 112       
PG32  16970.474496   2144.612465  20632.842751    190.971319  6  6  3 104       
*  2009  9 23 22  0  0.00000000
PG01 -18533.680760  14538.958129  12068.808508 999999.999999
PG02 -13068.404587 -23390.629820    201.375184    174.853182 10  8  1 114       
PG03  17131.815148  11439.704340 -17285.447605    451.199036  6  7  6 111       
PG04  -5035.025473 -23993.384458   9600.797745   -279.263678  5  3  7 111       
PG05  -9118.994225 -13356.246264 -21065.729636    -82.781179  7  6 10 126       
PG06  13110.159608  13455.142915 -18626.901032    243.746735  7  7  6 125       
PG07  12608.764814  -8263.710966 -21880.851393     10.906511  5  7  5 141       
PG08   4049.806057 -19025.610433 -17869.823394   -222.477224  8  3  4 142       
PG09 -18313.565197 -10499.288882  15492.243328     79.148898  7  6  8 137       
PG10  -7499.839451 -15170.337327 -20553.630548    -24.236947  8  5  6 148       
PG11  21117.408745   5365.394220  15191.888775    -21.021962  3  9  2 113       
PG12 -17346.091460   1821.783889  20048.153518   -214.520745  6  7  9 118       
PG13  22268.287273  -6605.984745 -13023.594965    304.962372  7  8  6 110       
PG14  -7325.149224  13792.521855  21592.970528    -46.887537  6  5  6 144       
PG15 -22801.588700  -8007.545610 -11074.158874   -319.011661 10  5  5 125       
PG16   2066.590694  19439.523190 -17817.415662      9.663688  7  7  8 129       
PG17   7178.028763 -14486.615713  21110.646713     87.360834  4  7  5 138       
PG18 -17342.119222  18869.784590  -5918.603628     15.042100  4  7  8 135       
PG19  23637.167536   8607.521974  -8894.716919      9.455210  8  9  6 141       
PG20  18413.999131  -5364.390793  18233.759615     71.577462  7  8  6 111       
PG21 -10988.056732  11935.382525 -20653.253110    -10.969293  6  7  5 113       
PG22 -10762.028418  23666.882198   5386.831466    190.257944  5  6  7 122       
PG23  26711.872807    929.919445    198.011674    388.266086  7  8  6 155       
PG24 -16995.272658  -2139.839005 -20111.042204    223.005700 11 11 10  55       
PG25  16261.803976  -1073.894481 -20593.493548    605.801848  7  7  8 102       
PG26 -16538.789977  10274.016690  17755.315822     61.936302  5  7  8 157       
PG27 -19060.555577 -13501.975174  13353.600738     85.279200  8  6  9 135       
PG28  12304.739167 -23153.253596   3407.267139    -26.115816  7  8  7 111       
PG29 -23842.422750   5808.572190 -10009.583162     60.102185  7  5  7 135       
PG30 -18251.891948  13536.098000  13311.193045    179.351598  5  6  8 124       
PG31   6741.258261  24250.155541   8461.627258    -63.978919  7  7  5 110       
PG32  15591.928628   4030.225210  21462.494674    190.964964  7  6  3  94       
*  2009  9 23 22 15  0.00000000
PG01 -17973.944992  13100.204214  14339.932248 999999.999999
PG02 -12733.291900 -23374.509640   2984.933102    174.856092 10  7  2 102       
PG03  15165.579803  11853.231027 -18775.824270    451.203055  6  7  6 113       
PG04  -4134.210313 -23045.875638  12042.910513   -279.279362  5  3  7 109       
PG05  -7894.438647 -15373.279204 -20158.874087    -82.771731  7  7  9 125       
PG06  10881.295496  13722.524447 -19809.799542    243.751396  7  7  7 130       
PG07  13876.878153  -6115.668906 -21832.234206     10.905800  6  7  5 143       
PG08   5122.253495 -17170.893632 -19453.765104   -222.478821  8  2  4 143       
PG09 -19108.442479 -12066.785873  13336.219046     79.150917  7  6  8 138       
PG10  -6239.432515 -17056.460837 -19427.449401    -24.237658  7  5  6 143       
PG11  22033.834706   6796.459582  13254.165641    -21.023782  3  8  3 107       
PG12 -16256.439037   -251.186999  21032.133969   -214.515800  6  7  9 108       
PG13  23585.569544  -6407.592361 -10545.374526    304.962467  7  8  6 110       
PG14  -9710.618895  13659.897707  20701.399104    -46.883094  6  5  6 138       
PG15 -21403.647775  -8260.660102 -13417.358753   -319.012667 10  6  6 125       
PG16    930.792030  21032.259129 -15995.177880      9.660387  7  7  8 130       
PG17   9531.339280 -14377.048227  20215.127618     87.363444  3  7  6 141       
PG18 -17174.189788  17954.779716  -8585.316428     15.044355  6  7  8 127       
PG19  22465.895720   8747.330300 -11400.049360      9.453727  9  8  6 146       
PG20  17521.076339  -3356.590547  19542.347264     71.576327  7  8  6  95       
PG21 -12272.935101   9831.408157 -21085.441344    -10.971516  6  7  5 116       
PG22 -11264.676516  23879.140647   2622.348171    190.257180  4  6  8 122       
PG23  26524.932106   1136.257083   3045.926921    388.265908  7  7  6 152       
PG24 -17930.849287  -4209.537307 -18922.036257    223.008270 10 10 10  90       
PG25  17568.040249    899.635384 -19501.460515    605.814625  7  7  8 115       
PG26 -18528.618935  10081.387507  15900.569385     61.935130  4  8  8 156       
PG27 -19646.347067 -14663.193221  10938.550265     85.281156  8  6 10 137       
PG28  12618.739584 -23172.547129    531.123152    -26.115962  7  8  7 102       
PG29 -24846.918147   5550.562812  -7392.224348     60.105180  7  5  7 132       
PG30 -17674.086582  11913.421893  15420.662993    179.354775  5  6  8 122       
PG31   6013.405025  23411.813437  11051.745926    -63.978816  7  7  6 113       
PG32  14276.124447   6042.945024  21933.955726    190.958441  7  5  3 105       
EOF
